start=new Date('2022-08-02T00:00:00.000Z').valueOf();
sats=[{"APOAPSIS":"548.619","SEMIMAJOR_AXIS":"6925.348","TLE_LINE1":"1 46345U 20062W   22213.60343759  .00002005  00000-0  15348-3 0  9990","FILE":"3526929","RCS_SIZE":"LARGE","BSTAR":"0.00015348000000","NORAD_CAT_ID":"46345","ECCENTRICITY":"0.00020300","PERIAPSIS":"545.808","REV_AT_EPOCH":"10594","ELEMENT_SET_NO":"999","MEAN_MOTION_DDOT":"0.0000000000000","SITE":"AFETR","GP_ID":"209331805","EPOCH":"2022-08-01T14:28:57.007776","OBJECT_NAME":"STARLINK-1767","OBJECT_ID":"2020-062W","MEAN_ELEMENT_THEORY":"SGP4","CENTER_NAME":"EARTH","INCLINATION":"53.0550","MEAN_MOTION_DOT":"0.00002005","TLE_LINE2":"2 46345  53.0550 164.7426 0002030  64.6184 295.5015 15.06400049105941","ARG_OF_PERICENTER":"64.6184","REF_FRAME":"TEME","LAUNCH_DATE":"2020-09-03","DECAY_DATE":null,"MEAN_MOTION":"15.06400049","MEAN_ANOMALY":"295.5015","COUNTRY_CODE":"US","CLASSIFICATION_TYPE":"U","EPHEMERIS_TYPE":"0","RA_OF_ASC_NODE":"164.7426","OBJECT_TYPE":"PAYLOAD","TIME_SYSTEM":"UTC","PERIOD":"95.592"},{"REF_FRAME":"TEME","LAUNCH_DATE":"2020-09-03","DECAY_DATE":null,"MEAN_MOTION":"15.34263932","MEAN_ANOMALY":"273.4561","COUNTRY_CODE":"US","CLASSIFICATION_TYPE":"U","EPHEMERIS_TYPE":"0","RA_OF_ASC_NODE":"358.4255","OBJECT_TYPE":"PAYLOAD","PERIOD":"93.856","TIME_SYSTEM":"UTC","OBJECT_ID":"2020-062X","CENTER_NAME":"EARTH","MEAN_ELEMENT_THEORY":"SGP4","INCLINATION":"53.0558","MEAN_MOTION_DOT":"0.00006744","TLE_LINE2":"2 46346  53.0558 358.4255 0001287  86.6587 273.4561 15.34263932108310","ARG_OF_PERICENTER":"86.6587","NORAD_CAT_ID":"46346","ECCENTRICITY":"0.00012870","PERIAPSIS":"462.229","REV_AT_EPOCH":"10831","ELEMENT_SET_NO":"999","MEAN_MOTION_DDOT":"0.0000000000000","SITE":"AFETR","GP_ID":"209387229","EPOCH":"2022-08-01T19:31:16.941792","OBJECT_NAME":"STARLINK-1546","APOAPSIS":"463.990","SEMIMAJOR_AXIS":"6841.245","TLE_LINE1":"1 46346U 20062X   22213.81339053  .00006744  00000-0  21144-3 0  9991","FILE":"3527139","RCS_SIZE":"LARGE","BSTAR":"0.00021144000000"},{"ARG_OF_PERICENTER":"68.8600","TLE_LINE2":"2 46347  53.0556 121.7275 0001826  68.8600 291.2584 15.06409606106498","OBJECT_ID":"2020-062Y","CENTER_NAME":"EARTH","MEAN_ELEMENT_THEORY":"SGP4","MEAN_MOTION_DOT":"-0.00000816","INCLINATION":"53.0556","EPHEMERIS_TYPE":"0","PERIOD":"95.592","TIME_SYSTEM":"UTC","RA_OF_ASC_NODE":"121.7275","OBJECT_TYPE":"PAYLOAD","REF_FRAME":"TEME","LAUNCH_DATE":"2020-09-03","MEAN_MOTION":"15.06409606","DECAY_DATE":null,"CLASSIFICATION_TYPE":"U","COUNTRY_CODE":"US","MEAN_ANOMALY":"291.2584","RCS_SIZE":"LARGE","BSTAR":"-0.00003586500000","FILE":"3526929","TLE_LINE1":"1 46347U 20062Y   22213.16437155 -.00000816  00000-0 -35865-4 0  9994","APOAPSIS":"548.449","SEMIMAJOR_AXIS":"6925.319","MEAN_MOTION_DDOT":"0.0000000000000","ELEMENT_SET_NO":"999","OBJECT_NAME":"STARLINK-1547","EPOCH":"2022-08-01T03:56:41.701920","GP_ID":"209330809","SITE":"AFETR","PERIAPSIS":"545.920","NORAD_CAT_ID":"46347","ECCENTRICITY":"0.00018260","REV_AT_EPOCH":"10649"},{"ARG_OF_PERICENTER":"70.1246","TLE_LINE2":"2 46348  53.0552 145.0362 0002081  70.1246 289.9967 15.06397637106216","MEAN_ELEMENT_THEORY":"SGP4","CENTER_NAME":"EARTH","OBJECT_ID":"2020-062Z","MEAN_MOTION_DOT":"0.00000504","INCLINATION":"53.0552","EPHEMERIS_TYPE":"0","PERIOD":"95.592","TIME_SYSTEM":"UTC","OBJECT_TYPE":"PAYLOAD","RA_OF_ASC_NODE":"145.0362","MEAN_MOTION":"15.06397637","DECAY_DATE":null,"REF_FRAME":"TEME","LAUNCH_DATE":"2020-09-03","CLASSIFICATION_TYPE":"U","MEAN_ANOMALY":"289.9967","COUNTRY_CODE":"US","BSTAR":"0.00005278200000","RCS_SIZE":"LARGE","TLE_LINE1":"1 46348U 20062Z   22213.53987898  .00000504  00000-0  52782-4 0  9999","FILE":"3526929","SEMIMAJOR_AXIS":"6925.356","APOAPSIS":"548.662","ELEMENT_SET_NO":"999","MEAN_MOTION_DDOT":"0.0000000000000","OBJECT_NAME":"STARLINK-1553","EPOCH":"2022-08-01T12:57:25.543872","SITE":"AFETR","GP_ID":"209332057","PERIAPSIS":"545.780","ECCENTRICITY":"0.00020810","NORAD_CAT_ID":"46348","REV_AT_EPOCH":"10621"},{"ARG_OF_PERICENTER":"62.6330","TLE_LINE2":"2 46349  53.0544 118.8697 0001687  62.6330 297.4831 15.06397617106603","OBJECT_ID":"2020-062AA","MEAN_ELEMENT_THEORY":"SGP4","CENTER_NAME":"EARTH","MEAN_MOTION_DOT":"-0.00000072","INCLINATION":"53.0544","EPHEMERIS_TYPE":"0","TIME_SYSTEM":"UTC","PERIOD":"95.592","OBJECT_TYPE":"PAYLOAD","RA_OF_ASC_NODE":"118.8697","REF_FRAME":"TEME","LAUNCH_DATE":"2020-09-03","MEAN_MOTION":"15.06397617","DECAY_DATE":null,"CLASSIFICATION_TYPE":"U","COUNTRY_CODE":"US","MEAN_ANOMALY":"297.4831","RCS_SIZE":"LARGE","BSTAR":"0.00001404200000","FILE":"3527139","TLE_LINE1":"1 46349U 20062AA  22213.80204379 -.00000072  00000-0  14042-4 0  9994","APOAPSIS":"548.389","SEMIMAJOR_AXIS":"6925.356","MEAN_MOTION_DDOT":"0.0000000000000","ELEMENT_SET_NO":"999","EPOCH":"2022-08-01T19:14:56.583456","OBJECT_NAME":"STARLINK-1575","SITE":"AFETR","GP_ID":"209386479","PERIAPSIS":"546.053","NORAD_CAT_ID":"46349","ECCENTRICITY":"0.00016870","REV_AT_EPOCH":"10660"},{"LAUNCH_DATE":"2020-09-03","REF_FRAME":"TEME","DECAY_DATE":null,"MEAN_MOTION":"15.06390403","MEAN_ANOMALY":"299.5707","COUNTRY_CODE":"US","CLASSIFICATION_TYPE":"U","EPHEMERIS_TYPE":"0","RA_OF_ASC_NODE":"164.9329","OBJECT_TYPE":"PAYLOAD","PERIOD":"95.593","TIME_SYSTEM":"UTC","OBJECT_ID":"2020-062AB","CENTER_NAME":"EARTH","MEAN_ELEMENT_THEORY":"SGP4","INCLINATION":"53.0544","MEAN_MOTION_DOT":"-0.00000239","TLE_LINE2":"2 46350  53.0544 164.9329 0001987  60.5480 299.5707 15.06390403106123","ARG_OF_PERICENTER":"60.5480","NORAD_CAT_ID":"46350","ECCENTRICITY":"0.00019870","PERIAPSIS":"545.867","REV_AT_EPOCH":"10612","ELEMENT_SET_NO":"999","MEAN_MOTION_DDOT":"0.0000000000000","GP_ID":"209363640","SITE":"AFETR","EPOCH":"2022-08-01T13:37:14.721600","OBJECT_NAME":"STARLINK-1617","APOAPSIS":"548.619","SEMIMAJOR_AXIS":"6925.378","FILE":"3526955","TLE_LINE1":"1 46350U 20062AB  22213.56753150 -.00000239  00000-0  28475-5 0  9996","RCS_SIZE":"LARGE","BSTAR":"0.00000284750000"},{"PERIAPSIS":"545.892","NORAD_CAT_ID":"46351","ECCENTRICITY":"0.00018920","REV_AT_EPOCH":"10627","MEAN_MOTION_DDOT":"0.0000000000000","ELEMENT_SET_NO":"999","OBJECT_NAME":"STARLINK-1646","EPOCH":"2022-08-01T20:05:58.992576","GP_ID":"209387471","SITE":"AFETR","APOAPSIS":"548.512","SEMIMAJOR_AXIS":"6925.337","RCS_SIZE":"LARGE","BSTAR":"0.00011639000000","FILE":"3527139","TLE_LINE1":"1 46351U 20062AC  22213.83748834  .00001453  00000-0  11639-3 0  9990","REF_FRAME":"TEME","LAUNCH_DATE":"2020-09-03","DECAY_DATE":null,"MEAN_MOTION":"15.06403825","CLASSIFICATION_TYPE":"U","MEAN_ANOMALY":"288.9304","COUNTRY_CODE":"US","EPHEMERIS_TYPE":"0","PERIOD":"95.592","TIME_SYSTEM":"UTC","RA_OF_ASC_NODE":"143.6865","OBJECT_TYPE":"PAYLOAD","OBJECT_ID":"2020-062AC","MEAN_ELEMENT_THEORY":"SGP4","CENTER_NAME":"EARTH","MEAN_MOTION_DOT":"0.00001453","INCLINATION":"53.0545","ARG_OF_PERICENTER":"71.1890","TLE_LINE2":"2 46351  53.0545 143.6865 0001892  71.1890 288.9304 15.06403825106276"},{"TLE_LINE1":"1 46352U 20062AD  22213.82000734  .00000592  00000-0  58632-4 0  9998","FILE":"3527139","RCS_SIZE":"LARGE","BSTAR":"0.00005863200000","APOAPSIS":"548.307","SEMIMAJOR_AXIS":"6925.340","MEAN_MOTION_DDOT":"0.0000000000000","ELEMENT_SET_NO":"999","SITE":"AFETR","GP_ID":"209386728","OBJECT_NAME":"STARLINK-1653","EPOCH":"2022-08-01T19:40:48.634176","NORAD_CAT_ID":"46352","ECCENTRICITY":"0.00015900","PERIAPSIS":"546.104","REV_AT_EPOCH":"10626","TLE_LINE2":"2 46352  53.0554 143.7874 0001590  75.2582 284.8583 15.06402648106261","ARG_OF_PERICENTER":"75.2582","OBJECT_ID":"2020-062AD","CENTER_NAME":"EARTH","MEAN_ELEMENT_THEORY":"SGP4","INCLINATION":"53.0554","MEAN_MOTION_DOT":"0.00000592","EPHEMERIS_TYPE":"0","OBJECT_TYPE":"PAYLOAD","RA_OF_ASC_NODE":"143.7874","TIME_SYSTEM":"UTC","PERIOD":"95.592","LAUNCH_DATE":"2020-09-03","REF_FRAME":"TEME","MEAN_MOTION":"15.06402648","DECAY_DATE":null,"MEAN_ANOMALY":"284.8583","COUNTRY_CODE":"US","CLASSIFICATION_TYPE":"U"},{"EPHEMERIS_TYPE":"0","RA_OF_ASC_NODE":"166.1888","OBJECT_TYPE":"PAYLOAD","PERIOD":"95.592","TIME_SYSTEM":"UTC","LAUNCH_DATE":"2020-09-03","REF_FRAME":"TEME","DECAY_DATE":null,"MEAN_MOTION":"15.06399575","MEAN_ANOMALY":"298.8386","COUNTRY_CODE":"US","CLASSIFICATION_TYPE":"U","TLE_LINE2":"2 46353  53.0536 166.1888 0001858  61.2789 298.8386 15.06399575105895","ARG_OF_PERICENTER":"61.2789","OBJECT_ID":"2020-062AE","MEAN_ELEMENT_THEORY":"SGP4","CENTER_NAME":"EARTH","INCLINATION":"53.0536","MEAN_MOTION_DOT":"-0.00000309","MEAN_MOTION_DDOT":"0.0000000000000","ELEMENT_SET_NO":"999","GP_ID":"209331806","SITE":"AFETR","OBJECT_NAME":"STARLINK-1656","EPOCH":"2022-08-01T06:53:50.736192","NORAD_CAT_ID":"46353","ECCENTRICITY":"0.00018580","PERIAPSIS":"545.928","REV_AT_EPOCH":"10589","TLE_LINE1":"1 46353U 20062AE  22213.28739278 -.00000309  00000-0 -18307-5 0  9995","FILE":"3526929","RCS_SIZE":"LARGE","BSTAR":"-0.00000183070000","APOAPSIS":"548.502","SEMIMAJOR_AXIS":"6925.350"},{"MEAN_MOTION":"15.06397887","DECAY_DATE":null,"REF_FRAME":"TEME","LAUNCH_DATE":"2020-09-03","CLASSIFICATION_TYPE":"U","COUNTRY_CODE":"US","MEAN_ANOMALY":"297.7041","EPHEMERIS_TYPE":"0","PERIOD":"95.592","TIME_SYSTEM":"UTC","OBJECT_TYPE":"PAYLOAD","RA_OF_ASC_NODE":"166.2196","CENTER_NAME":"EARTH","MEAN_ELEMENT_THEORY":"SGP4","OBJECT_ID":"2020-062AF","MEAN_MOTION_DOT":"-0.00000432","INCLINATION":"53.0547","ARG_OF_PERICENTER":"62.4161","TLE_LINE2":"2 46354  53.0547 166.2196 0002102  62.4161 297.7041 15.06397887105891","PERIAPSIS":"545.764","ECCENTRICITY":"0.00021020","NORAD_CAT_ID":"46354","REV_AT_EPOCH":"10589","ELEMENT_SET_NO":"999","MEAN_MOTION_DDOT":"0.0000000000000","OBJECT_NAME":"STARLINK-1657","EPOCH":"2022-08-01T06:37:55.355232","GP_ID":"209331061","SITE":"AFETR","SEMIMAJOR_AXIS":"6925.355","APOAPSIS":"548.676","BSTAR":"-0.00001009200000","RCS_SIZE":"LARGE","TLE_LINE1":"1 46354U 20062AF  22213.27633513 -.00000432  00000-0 -10092-4 0  9999","FILE":"3526929"}];
